NORAD_CAT_ID,OBJECT_NAME,OBJECT_TYPE,EPOCH,MEAN_MOTION,ECCENTRICITY,INCLINATION,RA_OF_ASC_NODE,ARG_OF_PERICENTER,MEAN_ANOMALY,BSTAR,MEAN_MOTION_DOT,MEAN_MOTION_DDOT,TLE_LINE0,TLE_LINE1,TLE_LINE2,SEMIMAJOR_AXIS,PERIOD,APOGEE,PERIGEE,DECAYED
47762,STARLINK-2180,PAYLOAD,2022-10-24 11:21:35,15.06383389,0.0001950999999999,53.0552,358.2776,42.6158,317.4982,-9.1023e-05,-1.637e-05,0.0,0 STARLINK-2180,1 47762U 21017AS  22297.47333198 -.00001637  00000-0 -91023-4 0  9995,2 47762  53.0552 358.2776 0001951  42.6158 317.4982 15.06383389 91817,6925.399,95.593,548.616,545.913,0.0
47762,STARLINK-2180,PAYLOAD,2022-10-25 08:03:36,15.06383916,0.0002089,53.056,354.4054,35.2247,324.8879,-3.1645e-05,-7.53e-06,0.0,0 STARLINK-2180,1 47762U 21017AS  22298.33584479 -.00000753  00000-0 -31645-4 0  9993,2 47762  53.0560 354.4054 0002089  35.2247 324.8879 15.06383916 91940,6925.398,95.593,548.71,545.816,0.0
47762,STARLINK-2180,PAYLOAD,2022-10-26 11:07:46,15.06395695,0.000226,53.0555,349.3421,37.5745,322.5401,0.0001388,1.786e-05,0.0,0 STARLINK-2180,1 47762U 21017AS  22299.46373391  .00001786  00000-0  13880-3 0  9992,2 47762  53.0555 349.3421 0002260  37.5745 322.5401 15.06395695 91464,6925.361999999999,95.592,548.7919999999998,545.6619999999998,0.0
47762,STARLINK-2180,PAYLOAD,2022-10-26 12:43:19,15.06391706,0.000231,53.0556,349.0442,41.3264,318.79,0.00023367,3.2e-05,0.0,0 STARLINK-2180,1 47762U 21017AS  22299.53008138  .00003200  00000-0  23367-3 0  9998,2 47762  53.0556 349.0442 0002310  41.3264 318.7900 15.06391706 92124,6925.374,95.593,548.839,545.639,0.0
47762,STARLINK-2180,PAYLOAD,2022-10-26 20:41:00,15.06396933,0.0002299,53.0555,347.5549,37.7814,322.3336,0.0002638999999999,3.651e-05,0.0,0 STARLINK-2180,1 47762U 21017AS  22299.86181254  .00003651  00000-0  26390-3 0  9994,2 47762  53.0555 347.5549 0002299  37.7814 322.3336 15.06396933 92176,6925.358,95.592,548.815,545.631,0.0
47762,STARLINK-2180,PAYLOAD,2022-10-27 09:25:20,15.06394689,0.0002204,53.0549,345.1729,40.2396,319.8756,0.00013939,1.795e-05,0.0,0 STARLINK-2180,1 47762U 21017AS  22300.39259311  .00001795  00000-0  13939-3 0  9997,2 47762  53.0549 345.1729 0002204  40.2396 319.8756 15.06394689 92255,6925.365,95.592,548.756,545.703,0.0
47762,STARLINK-2180,PAYLOAD,2022-10-27 20:34:05,15.06403765,0.0002362,53.055,343.0875,39.472,320.644,0.00017723,2.359e-05,0.0,0 STARLINK-2180,1 47762U 21017AS  22300.85701215  .00002359  00000-0  17723-3 0  9995,2 47762  53.0550 343.0875 0002362  39.4720 320.6440 15.06403765 91673,6925.337,95.592,548.8380000000002,545.566,0.0
47762,STARLINK-2180,PAYLOAD,2022-10-28 09:18:24,15.06404678,0.0002301,53.0554,340.7041,37.1074,323.0073,4.859899999999999e-05,4.42e-06,0.0,0 STARLINK-2180,1 47762U 21017AS  22301.38778735  .00000442  00000-0  48599-4 0  9992,2 47762  53.0554 340.7041 0002301  37.1074 323.0073 15.06404678 92401,6925.334,95.592,548.793,545.606,0.0
47762,STARLINK-2180,PAYLOAD,2022-10-29 07:35:58,15.0639769,0.000242,53.0552,336.5359,34.2171,325.8974,-2.2715e-05,-6.2e-06,0.0,0 STARLINK-2180,1 47762U 21017AS  22302.31664498 -.00000620  00000-0 -22715-4 0  9998,2 47762  53.0552 336.5359 0002420  34.2171 325.8974 15.06397690 91899,6925.356,95.592,548.8969999999998,545.545,0.0
47762,STARLINK-2180,PAYLOAD,2022-10-30 07:29:03,15.06404829,0.0002481,53.055,332.0675,37.3393,322.7768,-6.434600000000001e-05,-1.24e-05,0.0,0 STARLINK-2180,1 47762U 21017AS  22303.31184277 -.00001240  00000-0 -64346-4 0  9996,2 47762  53.0550 332.0675 0002481  37.3393 322.7768 15.06404829 92695,6925.334,95.592,548.9169999999998,545.481,0.0
47762,STARLINK-2180,PAYLOAD,2022-10-30 18:37:49,15.06402542,0.0002416,53.0549,329.9824,32.4084,327.7053,4.9308e-05,4.53e-06,0.0,0 STARLINK-2180,1 47762U 21017AS  22303.77626770  .00000453  00000-0  49308-4 0  9999,2 47762  53.0549 329.9824 0002416  32.4084 327.7053 15.06402542 92765,6925.340999999999,95.592,548.879,545.533,0.0
47762,STARLINK-2180,PAYLOAD,2022-10-31 08:57:41,15.0639486,0.0002508,53.056,327.2996,31.4902,328.6236,6.1271e-05,6.31e-06,0.0,0 STARLINK-2180,1 47762U 21017AS  22304.37339651  .00000631  00000-0  61271-4 0  9996,2 47762  53.0560 327.2996 0002508  31.4902 328.6236 15.06394860 92855,6925.364000000001,95.592,548.966,545.492,0.0
47762,STARLINK-2180,PAYLOAD,2022-10-31 18:30:55,15.06398894,0.0002301,53.0554,325.5149,35.2737,324.8404,8.3107e-05,9.56e-06,0.0,0 STARLINK-2180,1 47762U 21017AS  22304.77147478  .00000956  00000-0  83107-4 0  9996,2 47762  53.0554 325.5149 0002301  35.2737 324.8404 15.06398894 92911,6925.352,95.592,548.81,545.623,0.0
47762,STARLINK-2180,PAYLOAD,2022-11-01 02:28:38,15.06389458,0.0002475,53.0548,324.0257,35.1806,324.9346,9.0764e-06,-1.47e-06,0.0,0 STARLINK-2180,1 47762U 21017AS  22305.10321860 -.00000147  00000-0  90764-5 0  9994,2 47762  53.0548 324.0257 0002475  35.1806 324.9346 15.06389458 92312,6925.380999999999,95.593,548.96,545.5319999999998,0.0
47762,STARLINK-2180,PAYLOAD,2022-11-01 08:50:47,15.06396231,0.0002334,53.0547,322.8333,37.0442,323.0708,6.0196e-05,6.15e-06,0.0,0 STARLINK-2180,1 47762U 21017AS  22305.36860023  .00000615  00000-0  60196-4 0  9995,2 47762  53.0547 322.8333 0002334  37.0442 323.0708 15.06396231 92356,6925.36,95.592,548.841,545.609,0.0
47762,STARLINK-2180,PAYLOAD,2022-11-01 18:24:00,15.06402004,0.0002549,53.0548,321.0471,36.3851,323.731,3.5606e-05,2.48e-06,0.0,0 STARLINK-2180,1 47762U 21017AS  22305.76667791  .00000248  00000-0  35606-4 0  9996,2 47762  53.0548 321.0471 0002549  36.3851 323.7310 15.06402004 93066,6925.342,95.592,548.9730000000002,545.442,0.0
47762,STARLINK-2180,PAYLOAD,2022-11-02 08:43:52,15.06396281,0.0002563,53.0558,318.365,32.0794,328.035,-2.7853000000000013e-05,-6.97e-06,0.0,0 STARLINK-2180,1 47762U 21017AS  22306.36380562 -.00000697  00000-0 -27853-4 0  9996,2 47762  53.0558 318.3650 0002563  32.0794 328.0350 15.06396281 93151,6925.36,95.592,549.0,545.45,0.0
47762,STARLINK-2180,PAYLOAD,2022-11-02 23:03:44,15.06397452,0.0002617,53.0562,315.6855,40.6983,319.4201,9.6837e-06,-1.38e-06,0.0,0 STARLINK-2180,1 47762U 21017AS  22306.96092692 -.00000138  00000-0  96837-5 0  9994,2 47762  53.0562 315.6855 0002617  40.6983 319.4201 15.06397452 92595,6925.356,95.592,549.034,545.409,0.0
47762,STARLINK-2180,PAYLOAD,2022-11-03 07:01:26,15.06393452,0.0002633,53.0557,314.1968,33.1638,326.9515,2.393e-05,7.4e-07,0.0,0 STARLINK-2180,1 47762U 21017AS  22307.29266355  .00000074  00000-0  23930-4 0  9991,2 47762  53.0557 314.1968 0002633  33.1638 326.9515 15.06393452 93295,6925.369000000002,95.593,549.057,545.41,0.0
47762,STARLINK-2180,PAYLOAD,2022-11-03 22:56:48,15.0640259,0.0002603,53.0551,311.2197,31.4938,328.6206,0.00010627,1.301e-05,0.0,0 STARLINK-2180,1 47762U 21017AS  22307.95612160  .00001301  00000-0  10627-3 0  9995,2 47762  53.0551 311.2197 0002603  31.4938 328.6206 15.06402590 92741,6925.340999999999,95.592,549.008,545.403,0.0
47762,STARLINK-2180,PAYLOAD,2022-11-04 10:05:35,15.06405311,0.0002626,53.0546,309.135,33.9779,326.1378,8.6079e-05,1.001e-05,0.0,0 STARLINK-2180,1 47762U 21017AS  22308.42054708  .00001001  00000-0  86079-4 0  9998,2 47762  53.0546 309.1350 0002626  33.9779 326.1378 15.06405311 93464,6925.331999999999,95.592,549.016,545.379,0.0
47762,STARLINK-2180,PAYLOAD,2022-11-05 00:25:27,15.06396214,0.0002526,53.0541,306.4513,34.2708,325.8443,6.0786e-05,6.24e-06,0.0,0 STARLINK-2180,1 47762U 21017AS  22309.01767520  .00000624  00000-0  60786-4 0  9994,2 47762  53.0541 306.4513 0002526  34.2708 325.8443 15.06396214 92903,6925.36,95.592,548.975,545.476,0.0
47762,STARLINK-2180,PAYLOAD,2022-11-05 03:36:32,15.06394312,0.00024,53.0549,305.856,35.4134,324.7014,4.227e-05,3.48e-06,0.0,0 STARLINK-2180,1 47762U 21017AS  22309.15037045  .00000348  00000-0  42270-4 0  9992,2 47762  53.0549 305.8560 0002400  35.4134 324.7014 15.06394312 93576,6925.366,95.593,548.893,545.569,0.0
47762,STARLINK-2180,PAYLOAD,2022-11-05 16:20:50,15.06399087,0.0002454,53.0552,303.4749,32.3709,327.74300000000005,-2.7591e-05,-6.93e-06,0.0,0 STARLINK-2180,1 47762U 21017AS  22309.68114436 -.00000693  00000-0 -27591-4 0  9994,2 47762  53.0552 303.4749 0002454  32.3709 327.7430 15.06399087 93654,6925.351,95.592,548.9159999999998,545.5169999999998,0.0
47762,STARLINK-2180,PAYLOAD,2022-11-06 05:05:11,15.06387114,0.0002372,53.0542,301.0904,33.1449,326.9688,-8.469200000000001e-05,-1.543e-05,0.0,0 STARLINK-2180,1 47762U 21017AS  22310.21193589 -.00001543  00000-0 -84692-4 0  9991,2 47762  53.0542 301.0904 0002372  33.1449 326.9688 15.06387114 93080,6925.388000000001,95.593,548.896,545.61,0.0
47762,STARLINK-2180,PAYLOAD,2022-11-07 04:58:16,15.06390936,0.000237,53.0549,296.6208,36.606,323.509,4.945100000000001e-05,4.55e-06,0.0,0 STARLINK-2180,1 47762U 21017AS  22311.20713239  .00000455  00000-0  49451-4 0  9994,2 47762  53.0549 296.6208 0002370  36.6060 323.5090 15.06390936 93231,6925.376,95.593,548.883,545.6,0.0
47762,STARLINK-2180,PAYLOAD,2022-11-07 16:07:03,15.06392019,0.0002475,53.0548,294.538,31.3255,328.7881,0.00014909,1.939e-05,0.0,0 STARLINK-2180,1 47762U 21017AS  22311.67156644  .00001939  00000-0  14909-3 0  9993,2 47762  53.0548 294.5380 0002475  31.3255 328.7881 15.06392019 93950,6925.373000000001,95.593,548.952,545.524,0.0
47762,STARLINK-2180,PAYLOAD,2022-11-08 06:26:54,15.06401033,0.0002101,53.054,291.8569,34.7469,325.3657,0.0002072,2.806e-05,0.0,0 STARLINK-2180,1 47762U 21017AS  22312.26868181  .00002806  00000-0  20720-3 0  9997,2 47762  53.0540 291.8569 0002101  34.7469 325.3657 15.06401033 93390,6925.345,95.592,548.665,545.755,0.0
47762,STARLINK-2180,PAYLOAD,2022-11-08 08:02:26,15.06403829,0.0002104,53.054,291.5589,35.4386,324.6742,0.00023215,3.178e-05,0.0,0 STARLINK-2180,1 47762U 21017AS  22312.33502652  .00003178  00000-0  23215-3 0  9998,2 47762  53.0540 291.5589 0002104  35.4386 324.6742 15.06403829 94054,6925.337,95.592,548.659,545.745,0.0
